STARLINK-1761           
1 47626U 21012G   22249.47639869 -.00002052  00000+0 -11890-3 0  9994
2 47626  53.0544  58.7282 0001517  81.6402 278.4759 15.06391689 87022
STARLINK-1972           
1 47627U 21012H   22249.48700721 -.00004239  00000+0 -26592-3 0  9996
2 47627  53.0580 323.6710 0001622  80.5459 279.5713 15.06387476 88336
STARLINK-1973           
1 47628U 21012J   22249.18058119  .00000018  00000+0  20107-4 0  9997
2 47628  53.0556  60.0392 0001413  89.7013 270.4138 15.06394466 86980
STARLINK-1974           
1 47629U 21012K   22249.49483359 -.00005357  00000+0 -34121-3 0  9993
2 47629  53.0542 298.6508 0001398  75.2764 284.8380 15.06378039 88695
STARLINK-1983           
1 47630U 21012L   22249.38610723 -.00001704  00000+0 -95525-4 0  9998
2 47630  53.0589  39.2229 0001693  84.1241 275.9941 15.06393853 87272
STARLINK-1992           
1 47632U 21012N   22249.44551609 -.00003393  00000+0 -20914-3 0  9999
2 47632  53.0567 323.8647 0001554  98.1010 262.0155 15.06378193 88333
STARLINK-2009           
1 47633U 21012P   22249.46440637 -.00000880  00000+0 -40172-4 0  9997
2 47633  53.0556  58.8006 0001432  75.2943 284.8204 15.06390051 87043
STARLINK-2010           
1 47634U 21012Q   22249.50588802 -.00003389  00000+0 -20876-3 0  9995
2 47634  53.0558  58.5895 0001414  87.9109 272.2042 15.06391763 87023
STARLINK-2012           
1 47635U 21012R   22249.53124306 -.00004172  00000+0 -26151-3 0  9997
2 47635  53.0561 323.4819 0001365  76.0952 284.0189 15.06381592 88368
STARLINK-2013           
1 47636U 21012S   22249.16124585 -.00000814  00000+0 -35728-4 0  9996
2 47636  53.0552  40.1436 0001329 112.4584 247.6545 15.06400069 87252
STARLINK-2014           
1 47637U 21012T   22249.39715172 -.00000859  00000+0 -38805-4 0  9998
2 47637  53.0573  39.0833 0001756  97.8907 262.2282 15.06394776 87307
STARLINK-2015           
1 47638U 21012U   22249.52753548 -.00009644  00000+0 -62984-3 0  9998
2 47638  53.0549 323.4807 0000985  98.2205 261.8896 15.06376651 88344
STARLINK-2016           
1 47639U 21012V   22249.50772989 -.00004325  00000+0 -27174-3 0  9990
2 47639  53.0553  38.5882 0001280  86.0810 274.0325 15.06387405 87298
STARLINK-2018           
1 47640U 21012W   22249.50220571 -.00001902  00000+0 -10885-3 0  9996
2 47640  53.0557  58.6001 0001438  86.4145 273.7008 15.06394354 87037
STARLINK-2019           
1 47641U 21012X   22249.51280853 -.00004001  00000+0 -24993-3 0  9995
2 47641  53.0557 323.5709 0001661  99.3274 260.7903 15.06387261 88345
STARLINK-2020           
1 47642U 21012Y   22249.44184556 -.00000933  00000+0 -43751-4 0  9995
2 47642  53.0551  53.8614 0001390 104.0388 256.0756 15.06398788 87087
STARLINK-2022           
1 47643U 21012Z   22249.45613609 -.00001636  00000+0 -91007-4 0  9991
2 47643  53.0560  38.8227 0001305  84.9156 275.1982 15.06386888 87302
STARLINK-2026           
1 47644U 21012AA  22249.46903096 -.00000311  00000+0 -19618-5 0  9993
2 47644  53.0560  58.7601 0001573  96.8296 263.2872 15.06391820 87032
STARLINK-2027           
1 47645U 21012AB  22249.49025004 -.00004387  00000+0 -27589-3 0  9992
2 47645  53.0568  28.8986 0001187  91.3748 268.7377 15.06385224 87422
STARLINK-2028           
1 47646U 21012AC  22249.54322941 -.00002505  00000+0 -14933-3 0  9998
2 47646  53.0568 353.6689 0001102  91.4537 268.6578 15.06397452 87929
STARLINK-2030           
1 47647U 21012AD  22249.48008698 -.00001002  00000+0 -48399-4 0  9997
2 47647  53.0543  58.7089 0001678  93.3337 266.7844 15.06398749 87034
STARLINK-2031           
1 47648U 21012AE  22249.47087154 -.00006328  00000+0 -40650-3 0  9998
2 47648  53.0561  38.7518 0001458  86.4696 273.6459 15.06381918 87317
STARLINK-2032           
1 47649U 21012AF  22249.47455229 -.00001596  00000+0 -88293-4 0  9999
2 47649  53.0547  38.7437 0002023  76.2317 283.8897 15.06390301 87313
STARLINK-2033           
1 47650U 21012AG  22249.45982530 -.00002749  00000+0 -16575-3 0  9993
2 47650  53.0570  38.8092 0001557  93.2407 266.8760 15.06385997 86784
STARLINK-2035           
1 47651U 21012AH  22249.43217780 -.00000578  00000+0 -19916-4 0  9991
2 47651  53.0566  58.9765 0001574  92.4078 267.7092 15.06395439 87022
STARLINK-2036           
1 47652U 21012AJ  22249.45428715 -.00003153  00000+0 -19291-3 0  9993
2 47652  53.0539  58.8163 0001357  75.4081 284.7058 15.06390026 87026
STARLINK-2037           
1 47653U 21012AK  22249.44876004 -.00001328  00000+0 -70309-4 0  9991
2 47653  53.0566  38.8403 0001758  95.3125 264.8064 15.06391924 87290
STARLINK-2038           
1 47654U 21012AL  22249.52432913  .00005811  00000+0  40876-3 0  9992
2 47654  53.0555  58.5183 0001295  75.6411 284.4721 15.06395613 87037
STARLINK-2039           
1 47655U 21012AM  22249.18520499 -.00003021  00000+0 -18404-3 0  9997
2 47655  53.0540  60.0328 0001304  84.2931 275.8206 15.06392348 86982
STARLINK-2040           
1 47656U 21012AN  22249.46719782 -.00002239  00000+0 -13153-3 0  9990
2 47656  53.0558  38.7690 0001267  90.1619 269.9515 15.06383152 87300
STARLINK-2041           
1 47657U 21012AP  22249.47271322 -.00001604  00000+0 -88797-4 0  9997
2 47657  53.0540  58.7419 0001481  94.2260 265.8898 15.06393983 87029
STARLINK-2042           
1 47658U 21012AQ  22249.46534621 -.00001656  00000+0 -92284-4 0  9994
2 47658  53.0561  58.7808 0001389  86.9231 273.1917 15.06398071 87047
STARLINK-2043           
1 47659U 21012AR  22249.42479718 -.00004636  00000+0 -29269-3 0  9999
2 47659  53.0532 298.9637 0001323  83.8660 276.2479 15.06382804 88678
STARLINK-2044           
1 47660U 21012AS  22249.37788634 -.00005009  00000+0 -31769-3 0  9998
2 47660  53.0526 289.8000 0001260  79.1646 280.9485 15.06389339 88802
STARLINK-2051           
1 47661U 21012AT  22249.43032323 -.00000566  00000+0 -19089-4 0  9998
2 47661  53.0548  38.9318 0001495  84.7939 275.3220 15.06393752 87289
STARLINK-2052           
1 47662U 21012AU  22249.41094908 -.00001181  00000+0 -60417-4 0  9999
2 47662  53.0551  39.0257 0001545  87.9591 272.1575 15.06391610 87305
STARLINK-2053           
1 47663U 21012AV  22249.47460381 -.00003463  00000+0 -21381-3 0  9999
2 47663  53.0551 319.0363 0001165  92.3124 267.7998 15.06379513 88426
STARLINK-2054           
1 47664U 21012AW  22249.41190086 -.00000279  00000+0  14643-6 0  9993
2 47664  53.0559  39.0207 0001249  89.8258 270.2874 15.06388215 87300
STARLINK-2056           
1 47665U 21012AX  22248.72861962 -.00000453  00000+0 -11554-4 0  9996
2 47665  53.0569  37.1331 0001341 101.6064 258.5076 15.06395382 87261
STARLINK-2057           
1 47666U 21012AY  22249.38844339 -.00000186  00000+0  63989-5 0  9991
2 47666  53.0560  34.4696 0001473  92.7520 267.3638 15.06392025 87364
STARLINK-2058           
1 47667U 21012AZ  22249.17784733  .00003466  00000+0  25165-3 0  9995
2 47667  53.0547  60.0703 0001510  89.0067 271.1095 15.06374816 86964
STARLINK-2059           
1 47668U 21012BA  22249.41926782  .00001476  00000+0  11800-3 0  9995
2 47668  53.0553  38.9708 0001543  88.3396 271.7769 15.06394822 87306
STARLINK-2060           
1 47669U 21012BB  22249.50690451  .00015144  00000+0  91919-3 0  9993
2 47669  53.0546 321.0338 0002364  76.9543 283.1711 15.10712767 88372
STARLINK-2062           
1 47670U 21012BC  22249.50036711 -.00002502  00000+0 -14920-3 0  9991
2 47670  53.0568  38.6104 0001549  79.0942 281.0221 15.06388775 87309
STARLINK-2064           
1 47671U 21012BD  22249.41558671 -.00001904  00000+0 -10899-3 0  9992
2 47671  53.0545  38.9802 0001540  93.6858 266.4307 15.06395540 87302
STARLINK-2065           
1 47672U 21012BE  22249.52708317 -.00006743  00000+0 -43444-3 0  9997
2 47672  53.0545  28.5046 0001358  83.8765 276.2378 15.06378782 87433
STARLINK-2066           
1 47673U 21012BF  22249.37135296 -.00001899  00000+0 -10867-3 0  9991
2 47673  53.0558  39.2031 0001413  74.0347 286.0798 15.06393656 87286
STARLINK-2067           
1 47674U 21012BG  22249.45149333 -.00004161  00000+0 -26067-3 0  9992
2 47674  53.0561  38.8190 0001675  93.6328 266.4853 15.06390199 87304
STARLINK-2078           
1 47675U 21012BH  22249.44508227 -.00002977  00000+0 -18114-3 0  9990
2 47675  53.0554  38.8583 0001228  88.3560 271.7570 15.06376516 87308
STARLINK-2083           
1 47676U 21012BJ  22249.37411212 -.00003454  00000+0 -21317-3 0  9990
2 47676  53.0525 289.1780 0001511  68.1763 291.9387 15.06390355 88817
STARLINK-2090           
1 47677U 21012BK  22248.90044158  .00001741  00000+0  13575-3 0  9992
2 47677  53.0555  61.2972 0001445  67.5697 292.5445 15.06399526 86930
STARLINK-2095           
1 47679U 21012BM  22249.52706177 -.00000488  00000+0 -13877-4 0  9994
2 47679  53.0545  58.5046 0001381  83.9246 276.1901 15.06399611 87046
STARLINK-2068           
1 47722U 21017A   22249.23822076 -.00002933  00000+0 -17809-3 0  9998
2 47722  53.0558 185.0226 0001547  67.8930 292.2224 15.06397234 84997
STARLINK-2107           
1 47723U 21017B   22249.04697881 -.00000763  00000+0 -32343-4 0  9992
2 47723  53.0547 120.6570 0001574  85.0376 275.0793 15.06405548 85842
STARLINK-2116           
1 47724U 21017C   22249.08384186 -.00001604  00000+0 -88775-4 0  9993
2 47724  53.0549 120.4912 0001597  82.4812 277.6358 15.06398864 85818
STARLINK-2125           
1 47725U 21017D   22249.25062583 -.00000966  00000+0 -45988-4 0  9996
2 47725  53.0530 189.7402 0001452  83.0097 277.1057 15.06401959 84879
STARLINK-2126           
1 47726U 21017E   22249.23588253 -.00001271  00000+0 -66453-4 0  9992
2 47726  53.0555 189.8037 0001652  63.5975 296.5184 15.06401040 84868
STARLINK-2129           
1 47727U 21017F   22249.05432902 -.00000377  00000+0 -64228-5 0  9997
2 47727  53.0547 110.6301 0001313  70.0411 290.0719 15.06405568 85995
STARLINK-2131           
1 47728U 21017G   22249.34278143 -.00003724  00000+0 -23131-3 0  9990
2 47728  53.0528 189.3214 0001504  76.5173 283.5983 15.06385361 84941
STARLINK-2132           
1 47729U 21017H   22249.10644771 -.00001886  00000+0 -10780-3 0  9992
2 47729  53.0550 135.5901 0001587  79.7524 280.3644 15.06387245 85616
